start=new Date('2023-04-04T00:00:00.000Z').valueOf();
sats=[{"ARG_OF_PERICENTER":"82.1477","FILE":"3879059","GP_ID":"229392761","MEAN_MOTION_DOT":"0.00004373","EPOCH":"2023-04-03T12:54:21.469536","RCS_SIZE":"LARGE","NORAD_CAT_ID":"53529","LAUNCH_DATE":"2022-08-19","MEAN_ANOMALY":"277.9682","TLE_LINE1":"1 53529U 22101C   23093.53774849  .00004373  00000-0  29265-3 0  9998","OBJECT_NAME":"STARLINK-4478","MEAN_ELEMENT_THEORY":"SGP4","RA_OF_ASC_NODE":"202.7085","OBJECT_ID":"2022-101C","EPHEMERIS_TYPE":"0","MEAN_MOTION":"15.08846876","APOAPSIS":"540.741","DECAY_DATE":null,"PERIOD":"95.437","CLASSIFICATION_TYPE":"U","ECCENTRICITY":"0.00014700","REV_AT_EPOCH":"3445","INCLINATION":"53.2164","BSTAR":"0.00029265000000","TIME_SYSTEM":"UTC","COUNTRY_CODE":"US","REF_FRAME":"TEME","MEAN_MOTION_DDOT":"0.0000000000000","SITE":"AFETR","PERIAPSIS":"538.707","ELEMENT_SET_NO":"999","TLE_LINE2":"2 53529  53.2164 202.7085 0001470  82.1477 277.9682 15.08846876 34452","OBJECT_TYPE":"PAYLOAD","SEMIMAJOR_AXIS":"6917.859","CENTER_NAME":"EARTH"},{"CENTER_NAME":"EARTH","TLE_LINE2":"2 53530  53.2189 203.0366 0001535 100.9942 259.1223 15.08831344 34441","OBJECT_TYPE":"PAYLOAD","SEMIMAJOR_AXIS":"6917.907","ELEMENT_SET_NO":"999","PERIAPSIS":"538.710","SITE":"AFETR","MEAN_MOTION_DDOT":"0.0000000000000","REF_FRAME":"TEME","COUNTRY_CODE":"US","TIME_SYSTEM":"UTC","BSTAR":"-0.00000281130000","INCLINATION":"53.2189","REV_AT_EPOCH":"3444","ECCENTRICITY":"0.00015350","PERIOD":"95.438","CLASSIFICATION_TYPE":"U","DECAY_DATE":null,"APOAPSIS":"540.834","EPHEMERIS_TYPE":"0","MEAN_MOTION":"15.08831344","OBJECT_ID":"2022-101D","RA_OF_ASC_NODE":"203.0366","MEAN_ELEMENT_THEORY":"SGP4","OBJECT_NAME":"STARLINK-4482","TLE_LINE1":"1 53530U 22101D   23093.46511044 -.00000333  00000-0 -28113-5 0  9995","LAUNCH_DATE":"2022-08-19","MEAN_ANOMALY":"259.1223","NORAD_CAT_ID":"53530","RCS_SIZE":"LARGE","EPOCH":"2023-04-03T11:09:45.542016","MEAN_MOTION_DOT":"-0.00000333","GP_ID":"229392004","FILE":"3879059","ARG_OF_PERICENTER":"100.9942"},{"RCS_SIZE":"LARGE","EPOCH":"2023-04-03T17:35:13.567488","MEAN_MOTION_DOT":"0.00005169","GP_ID":"229424146","ARG_OF_PERICENTER":"76.6472","FILE":"3879321","NORAD_CAT_ID":"53531","OBJECT_ID":"2022-101E","RA_OF_ASC_NODE":"201.8348","MEAN_ELEMENT_THEORY":"SGP4","OBJECT_NAME":"STARLINK-4487","TLE_LINE1":"1 53531U 22101E   23093.73279592  .00005169  00000-0  34270-3 0  9994","MEAN_ANOMALY":"283.4689","LAUNCH_DATE":"2022-08-19","CLASSIFICATION_TYPE":"U","PERIOD":"95.438","DECAY_DATE":null,"APOAPSIS":"540.818","MEAN_MOTION":"15.08831588","EPHEMERIS_TYPE":"0","INCLINATION":"53.2174","REV_AT_EPOCH":"3448","ECCENTRICITY":"0.00015130","COUNTRY_CODE":"US","TIME_SYSTEM":"UTC","BSTAR":"0.00034270000000","ELEMENT_SET_NO":"999","PERIAPSIS":"538.724","SITE":"AFETR","MEAN_MOTION_DDOT":"0.0000000000000","REF_FRAME":"TEME","CENTER_NAME":"EARTH","TLE_LINE2":"2 53531  53.2174 201.8348 0001513  76.6472 283.4689 15.08831588 34485","OBJECT_TYPE":"PAYLOAD","SEMIMAJOR_AXIS":"6917.906"},{"MEAN_ANOMALY":"275.6081","LAUNCH_DATE":"2022-08-19","OBJECT_NAME":"STARLINK-4483","TLE_LINE1":"1 53532U 22101F   23093.69967587  .00018335  00000-0  11668-2 0  9992","MEAN_ELEMENT_THEORY":"SGP4","OBJECT_ID":"2022-101F","RA_OF_ASC_NODE":"201.9820","APOAPSIS":"540.633","MEAN_MOTION":"15.08848209","EPHEMERIS_TYPE":"0","DECAY_DATE":null,"PERIOD":"95.437","CLASSIFICATION_TYPE":"U","GP_ID":"229424897","FILE":"3879321","ARG_OF_PERICENTER":"84.5061","EPOCH":"2023-04-03T16:47:31.995168","MEAN_MOTION_DOT":"0.00018335","RCS_SIZE":"LARGE","NORAD_CAT_ID":"53532","REF_FRAME":"TEME","SITE":"AFETR","MEAN_MOTION_DDOT":"0.0000000000000","PERIAPSIS":"538.807","ELEMENT_SET_NO":"999","TLE_LINE2":"2 53532  53.2156 201.9820 0001320  84.5061 275.6081 15.08848209 34487","OBJECT_TYPE":"PAYLOAD","SEMIMAJOR_AXIS":"6917.855","CENTER_NAME":"EARTH","ECCENTRICITY":"0.00013200","REV_AT_EPOCH":"3448","INCLINATION":"53.2156","BSTAR":"0.00116680000000","TIME_SYSTEM":"UTC","COUNTRY_CODE":"US"},{"TLE_LINE1":"1 53533U 22101G   23093.49823624  .00001018  00000-0  82057-4 0  9996","OBJECT_NAME":"STARLINK-4493","LAUNCH_DATE":"2022-08-19","MEAN_ANOMALY":"277.1565","RA_OF_ASC_NODE":"202.8872","OBJECT_ID":"2022-101G","MEAN_ELEMENT_THEORY":"SGP4","DECAY_DATE":null,"EPHEMERIS_TYPE":"0","MEAN_MOTION":"15.08826238","APOAPSIS":"540.499","CLASSIFICATION_TYPE":"U","PERIOD":"95.438","MEAN_MOTION_DOT":"0.00001018","EPOCH":"2023-04-03T11:57:27.611136","FILE":"3879059","ARG_OF_PERICENTER":"82.9544","GP_ID":"229393249","RCS_SIZE":"LARGE","NORAD_CAT_ID":"53533","MEAN_MOTION_DDOT":"0.0000000000000","SITE":"AFETR","REF_FRAME":"TEME","ELEMENT_SET_NO":"999","PERIAPSIS":"539.076","CENTER_NAME":"EARTH","OBJECT_TYPE":"PAYLOAD","TLE_LINE2":"2 53533  53.2154 202.8872 0001028  82.9544 277.1565 15.08826238 34455","SEMIMAJOR_AXIS":"6917.922","ECCENTRICITY":"0.00010280","INCLINATION":"53.2154","REV_AT_EPOCH":"3445","TIME_SYSTEM":"UTC","BSTAR":"0.00008205700000","COUNTRY_CODE":"US"},{"RA_OF_ASC_NODE":"202.0483","OBJECT_ID":"2022-101H","MEAN_ELEMENT_THEORY":"SGP4","TLE_LINE1":"1 53534U 22101H   23093.68495150  .00011460  00000-0  73649-3 0  9995","OBJECT_NAME":"STARLINK-4488","MEAN_ANOMALY":"282.5329","LAUNCH_DATE":"2022-08-19","CLASSIFICATION_TYPE":"U","PERIOD":"95.436","DECAY_DATE":null,"MEAN_MOTION":"15.08862484","EPHEMERIS_TYPE":"0","APOAPSIS":"540.422","RCS_SIZE":"LARGE","MEAN_MOTION_DOT":"0.00011460","EPOCH":"2023-04-03T16:26:19.809600","ARG_OF_PERICENTER":"77.5784","FILE":"3879321","GP_ID":"229425892","NORAD_CAT_ID":"53534","ELEMENT_SET_NO":"999","PERIAPSIS":"538.931","MEAN_MOTION_DDOT":"0.0000000000000","SITE":"AFETR","REF_FRAME":"TEME","CENTER_NAME":"EARTH","TLE_LINE2":"2 53534  53.2150 202.0483 0001078  77.5784 282.5329 15.08862484 34487","OBJECT_TYPE":"PAYLOAD","SEMIMAJOR_AXIS":"6917.812","INCLINATION":"53.2150","REV_AT_EPOCH":"3448","ECCENTRICITY":"0.00010780","COUNTRY_CODE":"US","TIME_SYSTEM":"UTC","BSTAR":"0.00073649000000"},{"CENTER_NAME":"EARTH","TLE_LINE2":"2 53535  53.2141 202.0149 0001584  77.4234 282.6935 15.08837539 34485","OBJECT_TYPE":"PAYLOAD","SEMIMAJOR_AXIS":"6917.888","ELEMENT_SET_NO":"999","PERIAPSIS":"538.657","SITE":"AFETR","MEAN_MOTION_DDOT":"0.0000000000000","REF_FRAME":"TEME","COUNTRY_CODE":"US","TIME_SYSTEM":"UTC","BSTAR":"0.00059072000000","INCLINATION":"53.2141","REV_AT_EPOCH":"3448","ECCENTRICITY":"0.00015840","CLASSIFICATION_TYPE":"U","PERIOD":"95.438","DECAY_DATE":null,"APOAPSIS":"540.849","MEAN_MOTION":"15.08837539","EPHEMERIS_TYPE":"0","OBJECT_ID":"2022-101J","RA_OF_ASC_NODE":"202.0149","MEAN_ELEMENT_THEORY":"SGP4","OBJECT_NAME":"STARLINK-4138","TLE_LINE1":"1 53535U 22101J   23093.69231784  .00009125  00000-0  59072-3 0  9997","LAUNCH_DATE":"2022-08-19","MEAN_ANOMALY":"282.6935","NORAD_CAT_ID":"53535","RCS_SIZE":"LARGE","EPOCH":"2023-04-03T16:36:56.261376","MEAN_MOTION_DOT":"0.00009125","GP_ID":"229424647","ARG_OF_PERICENTER":"77.4234","FILE":"3879321"},{"REF_FRAME":"TEME","MEAN_MOTION_DDOT":"0.0000000000000","SITE":"AFETR","PERIAPSIS":"538.840","ELEMENT_SET_NO":"999","TLE_LINE2":"2 53536  53.2165 192.1138 0001292  82.8196 277.2943 15.08843895 34618","SEMIMAJOR_AXIS":"6917.868","OBJECT_TYPE":"PAYLOAD","CENTER_NAME":"EARTH","ECCENTRICITY":"0.00012920","REV_AT_EPOCH":"3461","INCLINATION":"53.2165","BSTAR":"0.00131820000000","TIME_SYSTEM":"UTC","COUNTRY_CODE":"US","LAUNCH_DATE":"2022-08-19","MEAN_ANOMALY":"277.2943","TLE_LINE1":"1 53536U 22101K   23093.67852297  .00020756  00000-0  13182-2 0  9998","OBJECT_NAME":"STARLINK-4053","MEAN_ELEMENT_THEORY":"SGP4","RA_OF_ASC_NODE":"192.1138","OBJECT_ID":"2022-101K","MEAN_MOTION":"15.08843895","EPHEMERIS_TYPE":"0","APOAPSIS":"540.627","DECAY_DATE":null,"PERIOD":"95.437","CLASSIFICATION_TYPE":"U","ARG_OF_PERICENTER":"82.8196","FILE":"3879321","GP_ID":"229424397","MEAN_MOTION_DOT":"0.00020756","EPOCH":"2023-04-03T16:17:04.384608","RCS_SIZE":"LARGE","NORAD_CAT_ID":"53536"},{"RCS_SIZE":"LARGE","GP_ID":"229392762","ARG_OF_PERICENTER":"78.4256","FILE":"3879059","EPOCH":"2023-04-03T11:56:05.095680","MEAN_MOTION_DOT":"0.00014322","NORAD_CAT_ID":"53537","MEAN_ELEMENT_THEORY":"SGP4","OBJECT_ID":"2022-101L","RA_OF_ASC_NODE":"202.8919","LAUNCH_DATE":"2022-08-19","MEAN_ANOMALY":"281.6855","OBJECT_NAME":"STARLINK-4120","TLE_LINE1":"1 53537U 22101L   23093.49728120  .00014322  00000-0  91642-3 0  9996","PERIOD":"95.438","CLASSIFICATION_TYPE":"U","APOAPSIS":"540.513","EPHEMERIS_TYPE":"0","MEAN_MOTION":"15.08828693","DECAY_DATE":null,"REV_AT_EPOCH":"3445","INCLINATION":"53.2156","ECCENTRICITY":"0.00010590","COUNTRY_CODE":"US","BSTAR":"0.00091642000000","TIME_SYSTEM":"UTC","PERIAPSIS":"539.047","ELEMENT_SET_NO":"999","REF_FRAME":"TEME","SITE":"AFETR","MEAN_MOTION_DDOT":"0.0000000000000","OBJECT_TYPE":"PAYLOAD","TLE_LINE2":"2 53537  53.2156 202.8919 0001059  78.4256 281.6855 15.08828693 34456","SEMIMAJOR_AXIS":"6917.915","CENTER_NAME":"EARTH"},{"NORAD_CAT_ID":"53538","RCS_SIZE":"LARGE","FILE":"3879321","ARG_OF_PERICENTER":"54.3092","GP_ID":"229425393","MEAN_MOTION_DOT":"0.00036540","EPOCH":"2023-04-03T17:41:51.110304","PERIOD":"95.437","CLASSIFICATION_TYPE":"U","EPHEMERIS_TYPE":"0","MEAN_MOTION":"15.08855765","APOAPSIS":"540.464","DECAY_DATE":null,"MEAN_ELEMENT_THEORY":"SGP4","RA_OF_ASC_NODE":"191.8136","OBJECT_ID":"2022-101M","LAUNCH_DATE":"2022-08-19","MEAN_ANOMALY":"305.8003","TLE_LINE1":"1 53538U 22101M   23093.73739711  .00036540  00000-0  23011-2 0  9992","OBJECT_NAME":"STARLINK-4118","COUNTRY_CODE":"US","BSTAR":"0.00230110000000","TIME_SYSTEM":"UTC","REV_AT_EPOCH":"3531","INCLINATION":"53.2168","ECCENTRICITY":"0.00011090","TLE_LINE2":"2 53538  53.2168 191.8136 0001109  54.3092 305.8003 15.08855765 35315","SEMIMAJOR_AXIS":"6917.832","OBJECT_TYPE":"PAYLOAD","CENTER_NAME":"EARTH","PERIAPSIS":"538.930","ELEMENT_SET_NO":"999","REF_FRAME":"TEME","MEAN_MOTION_DDOT":"0.0000000000000","SITE":"AFETR"}];
